[{"OBJECT_NAME":"FLOCK 4G-22","OBJECT_ID":"2025-009AN","EPOCH":"2026-03-09T22:51:40.689792","MEAN_MOTION":15.2720903,"ECCENTRICITY":8.959e-5,"INCLINATION":97.4046,"RA_OF_ASC_NODE":151.5884,"ARG_OF_PERICENTER":284.1963,"MEAN_ANOMALY":75.9176,"EPHEMERIS_TYPE":0,"CLASSIFICATION_TYPE":"U","NORAD_CAT_ID":62645,"ELEMENT_SET_NO":999,"REV_AT_EPOCH":6376,"BSTAR":0.00049035383,"MEAN_MOTION_DOT":0.00013013,"MEAN_MOTION_DDOT":0},{"OBJECT_NAME":"DELTA 1 DEB","OBJECT_ID":"1977-065GB","EPOCH":"2026-03-09T02:53:34.268064","MEAN_MOTION":14.47196386,"ECCENTRICITY":0.03689655,"INCLINATION":29.1068,"RA_OF_ASC_NODE":351.8301,"ARG_OF_PERICENTER":308.0029,"MEAN_ANOMALY":48.7782,"EPHEMERIS_TYPE":0,"CLASSIFICATION_TYPE":"U","NORAD_CAT_ID":19429,"ELEMENT_SET_NO":999,"REV_AT_EPOCH":87217,"BSTAR":0.0013714479,"MEAN_MOTION_DOT":0.0001237,"MEAN_MOTION_DDOT":0}]
